[{"OBJECT_NAME":"STARLINK-4144","OBJECT_ID":"2022-086R","EPOCH":"2026-03-09T14:44:04.925760","MEAN_MOTION":15.0884349,"ECCENTRICITY":0.0001162,"INCLINATION":53.2167,"RA_OF_ASC_NODE":194.4603,"ARG_OF_PERICENTER":98.4624,"MEAN_ANOMALY":261.65,"EPHEMERIS_TYPE":0,"CLASSIFICATION_TYPE":"U","NORAD_CAT_ID":53257,"ELEMENT_SET_NO":999,"REV_AT_EPOCH":20105,"BSTAR":-1.3508e-5,"MEAN_MOTION_DOT":-5.03e-6,"MEAN_MOTION_DDOT":0},{"OBJECT_NAME":"OBJECT D","OBJECT_ID":"2025-013D","EPOCH":"2026-03-09T22:45:56.369376","MEAN_MOTION":15.10588544,"ECCENTRICITY":0.0008827,"INCLINATION":97.6457,"RA_OF_ASC_NODE":238.3603,"ARG_OF_PERICENTER":18.3993,"MEAN_ANOMALY":341.7554,"EPHEMERIS_TYPE":0,"CLASSIFICATION_TYPE":"U","NORAD_CAT_ID":62732,"ELEMENT_SET_NO":999,"REV_AT_EPOCH":6229,"BSTAR":0.00036300228,"MEAN_MOTION_DOT":5.935e-5,"MEAN_MOTION_DDOT":0}]
